[{"OBJECT_NAME":"KUIPER-00119","OBJECT_ID":"2025-171Z","EPOCH":"2026-03-06T07:54:01.621152","MEAN_MOTION":14.79999385,"ECCENTRICITY":0.00010513,"INCLINATION":51.9008,"RA_OF_ASC_NODE":178.0294,"ARG_OF_PERICENTER":141.8268,"MEAN_ANOMALY":218.2769,"EPHEMERIS_TYPE":0,"CLASSIFICATION_TYPE":"U","NORAD_CAT_ID":65155,"ELEMENT_SET_NO":999,"REV_AT_EPOCH":3231,"BSTAR":0.00084952084,"MEAN_MOTION_DOT":6.271e-5,"MEAN_MOTION_DDOT":0},{"OBJECT_NAME":"KUIPER-00120","OBJECT_ID":"2025-217A","EPOCH":"2026-03-06T10:20:31.464672","MEAN_MOTION":14.79960839,"ECCENTRICITY":6.157e-5,"INCLINATION":51.9003,"RA_OF_ASC_NODE":67.4805,"ARG_OF_PERICENTER":62.6141,"MEAN_ANOMALY":297.4884,"EPHEMERIS_TYPE":0,"CLASSIFICATION_TYPE":"U","NORAD_CAT_ID":65762,"ELEMENT_SET_NO":999,"REV_AT_EPOCH":2425,"BSTAR":-0.00092033923,"MEAN_MOTION_DOT":-7.234e-5,"MEAN_MOTION_DDOT":0},{"OBJECT_NAME":"KUIPER-00132","OBJECT_ID":"2025-217B","EPOCH":"2026-03-06T13:37:29.302464","MEAN_MOTION":15.39633151,"ECCENTRICITY":0.00062058,"INCLINATION":51.8614,"RA_OF_ASC_NODE":18.654,"ARG_OF_PERICENTER":324.6418,"MEAN_ANOMALY":35.4158,"EPHEMERIS_TYPE":0,"CLASSIFICATION_TYPE":"U","NORAD_CAT_ID":65763,"ELEMENT_SET_NO":999,"REV_AT_EPOCH":2494,"BSTAR":0.0011355033,"MEAN_MOTION_DOT":0.00045378,"MEAN_MOTION_DDOT":0},{"OBJECT_NAME":"KUIPER-00133","OBJECT_ID":"2025-217C","EPOCH":"2026-03-06T09:31:54.973920","MEAN_MOTION":14.79930821,"ECCENTRICITY":0.0001734,"INCLINATION":51.9035,"RA_OF_ASC_NODE":67.6743,"ARG_OF_PERICENTER":25.2136,"MEAN_ANOMALY":334.8911,"EPHEMERIS_TYPE":0,"CLASSIFICATION_TYPE":"U","NORAD_CAT_ID":65764,"ELEMENT_SET_NO":999,"REV_AT_EPOCH":2425,"BSTAR":0.00024484596,"MEAN_MOTION_DOT":1.645e-5,"MEAN_MOTION_DDOT":0},{"OBJECT_NAME":"KUIPER-00139","OBJECT_ID":"2025-217D","EPOCH":"2026-03-06T09:09:52.035264","MEAN_MOTION":15.01823781,"ECCENTRICITY":0.00071312,"INCLINATION":51.8857,"RA_OF_ASC_NODE":48.9424,"ARG_OF_PERICENTER":308.952,"MEAN_ANOMALY":51.0815,"EPHEMERIS_TYPE":0,"CLASSIFICATION_TYPE":"U","NORAD_CAT_ID":65765,"ELEMENT_SET_NO":999,"REV_AT_EPOCH":2451,"BSTAR":0.00074305936,"MEAN_MOTION_DOT":9.548e-5,"MEAN_MOTION_DDOT":0},{"OBJECT_NAME":"KUIPER-00142","OBJECT_ID":"2025-217E","EPOCH":"2026-03-06T07:33:23.149728","MEAN_MOTION":14.79921864,"ECCENTRICITY":5.442e-5,"INCLINATION":51.9,"RA_OF_ASC_NODE":50.5138,"ARG_OF_PERICENTER":88.781,"MEAN_ANOMALY":271.3215,"EPHEMERIS_TYPE":0,"CLASSIFICATION_TYPE":"U","NORAD_CAT_ID":65766,"ELEMENT_SET_NO":999,"REV_AT_EPOCH":2448,"BSTAR":0.00019143922,"MEAN_MOTION_DOT":1.238e-5,"MEAN_MOTION_DDOT":0},{"OBJECT_NAME":"KUIPER-00145","OBJECT_ID":"2025-217F","EPOCH":"2026-03-06T09:06:33.820704","MEAN_MOTION":14.79953597,"ECCENTRICITY":8.422e-5,"INCLINATION":51.9,"RA_OF_ASC_NODE":52.7403,"ARG_OF_PERICENTER":81.2176,"MEAN_ANOMALY":278.8882,"EPHEMERIS_TYPE":0,"CLASSIFICATION_TYPE":"U","NORAD_CAT_ID":65767,"ELEMENT_SET_NO":999,"REV_AT_EPOCH":2445,"BSTAR":0.00074278045,"MEAN_MOTION_DOT":5.449e-5,"MEAN_MOTION_DDOT":0},{"OBJECT_NAME":"KUIPER-00147","OBJECT_ID":"2025-217G","EPOCH":"2026-03-06T09:51:25.743168","MEAN_MOTION":14.79941134,"ECCENTRICITY":8.32e-5,"INCLINATION":51.8982,"RA_OF_ASC_NODE":55.0983,"ARG_OF_PERICENTER":73.5219,"MEAN_ANOMALY":286.5835,"EPHEMERIS_TYPE":0,"CLASSIFICATION_TYPE":"U","NORAD_CAT_ID":65768,"ELEMENT_SET_NO":999,"REV_AT_EPOCH":2442,"BSTAR":1.9798376e-5,"MEAN_MOTION_DOT":-7.0e-7,"MEAN_MOTION_DDOT":0},{"OBJECT_NAME":"KUIPER-00148","OBJECT_ID":"2025-217H","EPOCH":"2026-03-06T15:02:57.100128","MEAN_MOTION":15.09578066,"ECCENTRICITY":0.00083115,"INCLINATION":51.8795,"RA_OF_ASC_NODE":38.8459,"ARG_OF_PERICENTER":344.6476,"MEAN_ANOMALY":15.4246,"EPHEMERIS_TYPE":0,"CLASSIFICATION_TYPE":"U","NORAD_CAT_ID":65769,"ELEMENT_SET_NO":999,"REV_AT_EPOCH":2467,"BSTAR":0.00078590061,"MEAN_MOTION_DOT":0.00012512,"MEAN_MOTION_DDOT":0},{"OBJECT_NAME":"KUIPER-00150","OBJECT_ID":"2025-217J","EPOCH":"2026-03-06T09:35:32.695872","MEAN_MOTION":14.80017336,"ECCENTRICITY":7.73e-5,"INCLINATION":51.9008,"RA_OF_ASC_NODE":65.1512,"ARG_OF_PERICENTER":49.8298,"MEAN_ANOMALY":310.2732,"EPHEMERIS_TYPE":0,"CLASSIFICATION_TYPE":"U","NORAD_CAT_ID":65770,"ELEMENT_SET_NO":999,"REV_AT_EPOCH":2428,"BSTAR":0.00070838374,"MEAN_MOTION_DOT":5.194e-5,"MEAN_MOTION_DDOT":0},{"OBJECT_NAME":"KUIPER-00151","OBJECT_ID":"2025-217K","EPOCH":"2026-03-06T09:47:30.755040","MEAN_MOTION":14.79939808,"ECCENTRICITY":0.00010824,"INCLINATION":51.9016,"RA_OF_ASC_NODE":57.6126,"ARG_OF_PERICENTER":63.7897,"MEAN_ANOMALY":296.3177,"EPHEMERIS_TYPE":0,"CLASSIFICATION_TYPE":"U","NORAD_CAT_ID":65771,"ELEMENT_SET_NO":999,"REV_AT_EPOCH":2439,"BSTAR":-3.8952751e-5,"MEAN_MOTION_DOT":-5.18e-6,"MEAN_MOTION_DDOT":0},{"OBJECT_NAME":"KUIPER-00152","OBJECT_ID":"2025-217L","EPOCH":"2026-03-06T07:41:02.751936","MEAN_MOTION":14.79947019,"ECCENTRICITY":7.364e-5,"INCLINATION":51.9009,"RA_OF_ASC_NODE":45.4933,"ARG_OF_PERICENTER":129.9507,"MEAN_ANOMALY":230.152,"EPHEMERIS_TYPE":0,"CLASSIFICATION_TYPE":"U","NORAD_CAT_ID":65772,"ELEMENT_SET_NO":999,"REV_AT_EPOCH":2455,"BSTAR":0.00023822695,"MEAN_MOTION_DOT":1.596e-5,"MEAN_MOTION_DDOT":0},{"OBJECT_NAME":"KUIPER-00153","OBJECT_ID":"2025-217M","EPOCH":"2026-03-06T15:02:32.839872","MEAN_MOTION":15.13149431,"ECCENTRICITY":0.00101334,"INCLINATION":51.8787,"RA_OF_ASC_NODE":41.7991,"ARG_OF_PERICENTER":315.8375,"MEAN_ANOMALY":44.1791,"EPHEMERIS_TYPE":0,"CLASSIFICATION_TYPE":"U","NORAD_CAT_ID":65773,"ELEMENT_SET_NO":999,"REV_AT_EPOCH":2463,"BSTAR":3.6660216e-5,"MEAN_MOTION_DOT":3.53e-6,"MEAN_MOTION_DDOT":0},{"OBJECT_NAME":"KUIPER-00155","OBJECT_ID":"2025-217N","EPOCH":"2026-03-06T20:14:32.853984","MEAN_MOTION":15.23017977,"ECCENTRICITY":0.0005744,"INCLINATION":51.8786,"RA_OF_ASC_NODE":24.9799,"ARG_OF_PERICENTER":320.8569,"MEAN_ANOMALY":39.1995,"EPHEMERIS_TYPE":0,"CLASSIFICATION_TYPE":"U","NORAD_CAT_ID":65774,"ELEMENT_SET_NO":999,"REV_AT_EPOCH":2488,"BSTAR":0.0011766,"MEAN_MOTION_DOT":0.00027843,"MEAN_MOTION_DDOT":0},{"OBJECT_NAME":"KUIPER-00156","OBJECT_ID":"2025-217P","EPOCH":"2026-03-06T15:06:25.932384","MEAN_MOTION":14.79940863,"ECCENTRICITY":8.288e-5,"INCLINATION":51.9036,"RA_OF_ASC_NODE":39.156,"ARG_OF_PERICENTER":91.2412,"MEAN_ANOMALY":268.8646,"EPHEMERIS_TYPE":0,"CLASSIFICATION_TYPE":"U","NORAD_CAT_ID":65775,"ELEMENT_SET_NO":999,"REV_AT_EPOCH":2466,"BSTAR":0.00086040366,"MEAN_MOTION_DOT":6.345e-5,"MEAN_MOTION_DDOT":0},{"OBJECT_NAME":"KUIPER-00158","OBJECT_ID":"2025-217Q","EPOCH":"2026-03-06T08:41:27.196512","MEAN_MOTION":14.80505539,"ECCENTRICITY":0.00011323,"INCLINATION":51.8971,"RA_OF_ASC_NODE":60.1903,"ARG_OF_PERICENTER":45.5533,"MEAN_ANOMALY":314.5522,"EPHEMERIS_TYPE":0,"CLASSIFICATION_TYPE":"U","NORAD_CAT_ID":65776,"ELEMENT_SET_NO":999,"REV_AT_EPOCH":2435,"BSTAR":0.0009202769,"MEAN_MOTION_DOT":6.897e-5,"MEAN_MOTION_DDOT":0},{"OBJECT_NAME":"KUIPER-00163","OBJECT_ID":"2025-217R","EPOCH":"2026-03-06T20:00:00.999360","MEAN_MOTION":14.97184394,"ECCENTRICITY":7.23e-5,"INCLINATION":51.8975,"RA_OF_ASC_NODE":59.8264,"ARG_OF_PERICENTER":263.0961,"MEAN_ANOMALY":148.1082,"EPHEMERIS_TYPE":0,"CLASSIFICATION_TYPE":"U","NORAD_CAT_ID":65777,"ELEMENT_SET_NO":999,"REV_AT_EPOCH":573,"BSTAR":0.16051,"MEAN_MOTION_DOT":0.02065106,"MEAN_MOTION_DDOT":0}]
